ATLAS CENTAUR R/B       
1 06155U 72065B   26089.23325663  .00001713  00000+0  23588-3 0  9992
2 06155  35.0008 185.3537 0033506 184.2080 175.8342 14.77746395844309
SL-8 R/B                
1 08459U 75112B   26089.09254135  .00000264  00000+0  95393-4 0  9990
2 08459  74.0628 341.3834 0014571  66.2179 294.0502 14.38215385634803
SL-3 R/B                
1 10114U 77057B   26089.23972588  .00017401  00000+0  35703-3 0  9995
2 10114  97.5793 262.0778 0006835 199.9980 160.1002 15.46082909671501
SEASAT 1                
1 10967U 78064A   26089.17849084  .00000346  00000+0  13499-3 0  9995
2 10967 108.0073 168.4897 0002663 275.6640  84.4202 14.46177289509478
SL-14 R/B               
1 11267U 79011B   26089.23782816  .00000858  00000+0  82195-4 0  9996
2 11267  82.5211  77.0661 0015815 354.8776   5.2279 14.91935250531840
SL-8 R/B                
1 11574U 79089B   26089.20645030  .00000426  00000+0  13672-3 0  9999
2 11574  74.0690  53.0611 0016714 223.0756 136.9093 14.42363855439060
SL-14 R/B               
1 11672U 80005B   26089.26439103  .00000751  00000+0  73356-4 0  9993
2 11672  82.5111 287.7146 0017252  94.4886 265.8305 14.90953941479552
SL-8 R/B                
1 12139U 81003B   26088.99535246  .00028472  00000+0  71190-3 0  9998
2 12139  82.9325 271.2335 0260731 108.0114 254.9717 15.11879258317748
SL-3 R/B                
1 12465U 81046B   26089.02738501  .00015727  00000+0  35994-3 0  9992
2 12465  81.2280 265.3089 0018186 310.1268  49.8381 15.42493252441569
SL-3 R/B                
1 12904U 81103B   26089.22526149  .00007828  00000+0  34487-3 0  9998
2 12904  81.1611 189.3425 0012813 212.9255 147.1180 15.21619340976353
SL-3 R/B                
1 13068U 82013B   26089.22511159  .00004985  00000+0  21434-3 0  9995
2 13068  81.1734 136.6998 0023571 110.0739 250.3033 15.22198356407475
SL-3 R/B                
1 13154U 82039B   26089.19722717  .00003681  00000+0  22190-3 0  9991
2 13154  81.1568 192.3156 0028523 256.5407 103.2640 15.10196186384730
