CCSDS_OMM_VERS = 2.0
CREATION_DATE  = 
ORIGINATOR     = 

OBJECT_NAME    = ATLAS CENTAUR R/B
OBJECT_ID      = 1972-065B
CENTER_NAME    = EARTH
REF_FRAME      = TEME
TIME_SYSTEM    = UTC
MEAN_ELEMENT_THEORY = SGP/SGP4

EPOCH          = 2026-03-30T05:35:53.372832
MEAN_MOTION    = 14.77746395
ECCENTRICITY   = .00335062
INCLINATION    = 35.0008
RA_OF_ASC_NODE = 185.3537
ARG_OF_PERICENTER = 184.2080
MEAN_ANOMALY   = 175.8342

EPHEMERIS_TYPE = 0
CLASSIFICATION_TYPE = U
NORAD_CAT_ID   = 6155
ELEMENT_SET_NO = 999
REV_AT_EPOCH   = 84430
BSTAR          = .2358799E-3
MEAN_MOTION_DOT = .1713E-4
MEAN_MOTION_DDOT = 0

CCSDS_OMM_VERS = 2.0
CREATION_DATE  = 
ORIGINATOR     = 

OBJECT_NAME    = SL-8 R/B
OBJECT_ID      = 1975-112B
CENTER_NAME    = EARTH
REF_FRAME      = TEME
TIME_SYSTEM    = UTC
MEAN_ELEMENT_THEORY = SGP/SGP4

EPOCH          = 2026-03-30T02:13:15.572640
MEAN_MOTION    = 14.38215385
ECCENTRICITY   = .0014571
INCLINATION    = 74.0628
RA_OF_ASC_NODE = 341.3834
ARG_OF_PERICENTER = 66.2179
MEAN_ANOMALY   = 294.0502

EPHEMERIS_TYPE = 0
CLASSIFICATION_TYPE = U
NORAD_CAT_ID   = 8459
ELEMENT_SET_NO = 999
REV_AT_EPOCH   = 63480
BSTAR          = .95393009E-4
MEAN_MOTION_DOT = .264E-5
MEAN_MOTION_DDOT = 0

CCSDS_OMM_VERS = 2.0
CREATION_DATE  = 
ORIGINATOR     = 

OBJECT_NAME    = SL-3 R/B
OBJECT_ID      = 1977-057B
CENTER_NAME    = EARTH
REF_FRAME      = TEME
TIME_SYSTEM    = UTC
MEAN_ELEMENT_THEORY = SGP/SGP4

EPOCH          = 2026-03-30T05:45:12.316032
MEAN_MOTION    = 15.46082909
ECCENTRICITY   = .00068358
INCLINATION    = 97.5793
RA_OF_ASC_NODE = 262.0778
ARG_OF_PERICENTER = 199.9980
MEAN_ANOMALY   = 160.1002

EPHEMERIS_TYPE = 0
CLASSIFICATION_TYPE = U
NORAD_CAT_ID   = 10114
ELEMENT_SET_NO = 999
REV_AT_EPOCH   = 67150
BSTAR          = .35702869E-3
MEAN_MOTION_DOT = .17401E-3
MEAN_MOTION_DDOT = 0

CCSDS_OMM_VERS = 2.0
CREATION_DATE  = 
ORIGINATOR     = 

OBJECT_NAME    = SEASAT 1
OBJECT_ID      = 1978-064A
CENTER_NAME    = EARTH
REF_FRAME      = TEME
TIME_SYSTEM    = UTC
MEAN_ELEMENT_THEORY = SGP/SGP4

EPOCH          = 2026-03-30T04:17:01.608576
MEAN_MOTION    = 14.46177289
ECCENTRICITY   = .00026635
INCLINATION    = 108.0073
RA_OF_ASC_NODE = 168.4897
ARG_OF_PERICENTER = 275.6640
MEAN_ANOMALY   = 84.4202

EPHEMERIS_TYPE = 0
CLASSIFICATION_TYPE = U
NORAD_CAT_ID   = 10967
ELEMENT_SET_NO = 999
REV_AT_EPOCH   = 50947
BSTAR          = .13498817E-3
MEAN_MOTION_DOT = .346E-5
MEAN_MOTION_DDOT = 0

CCSDS_OMM_VERS = 2.0
CREATION_DATE  = 
ORIGINATOR     = 

OBJECT_NAME    = SL-14 R/B
OBJECT_ID      = 1979-011B
CENTER_NAME    = EARTH
REF_FRAME      = TEME
TIME_SYSTEM    = UTC
MEAN_ELEMENT_THEORY = SGP/SGP4

EPOCH          = 2026-03-30T05:42:28.353024
MEAN_MOTION    = 14.91935250
ECCENTRICITY   = .00158159
INCLINATION    = 82.5211
RA_OF_ASC_NODE = 77.0661
ARG_OF_PERICENTER = 354.8776
MEAN_ANOMALY   = 5.2279

EPHEMERIS_TYPE = 0
CLASSIFICATION_TYPE = U
NORAD_CAT_ID   = 11267
ELEMENT_SET_NO = 999
REV_AT_EPOCH   = 53184
BSTAR          = .82195022E-4
MEAN_MOTION_DOT = .858E-5
MEAN_MOTION_DDOT = 0

CCSDS_OMM_VERS = 2.0
CREATION_DATE  = 
ORIGINATOR     = 

OBJECT_NAME    = SL-8 R/B
OBJECT_ID      = 1979-089B
CENTER_NAME    = EARTH
REF_FRAME      = TEME
TIME_SYSTEM    = UTC
MEAN_ELEMENT_THEORY = SGP/SGP4

EPOCH          = 2026-03-30T04:57:17.305920
MEAN_MOTION    = 14.42363855
ECCENTRICITY   = .00167144
INCLINATION    = 74.0690
RA_OF_ASC_NODE = 53.0611
ARG_OF_PERICENTER = 223.0756
MEAN_ANOMALY   = 136.9093

EPHEMERIS_TYPE = 0
CLASSIFICATION_TYPE = U
NORAD_CAT_ID   = 11574
ELEMENT_SET_NO = 999
REV_AT_EPOCH   = 43906
BSTAR          = .13672373E-3
MEAN_MOTION_DOT = .426E-5
MEAN_MOTION_DDOT = 0

CCSDS_OMM_VERS = 2.0
CREATION_DATE  = 
ORIGINATOR     = 

OBJECT_NAME    = SL-14 R/B
OBJECT_ID      = 1980-005B
CENTER_NAME    = EARTH
REF_FRAME      = TEME
TIME_SYSTEM    = UTC
MEAN_ELEMENT_THEORY = SGP/SGP4

EPOCH          = 2026-03-30T06:20:43.384992
MEAN_MOTION    = 14.90953941
ECCENTRICITY   = .00172525
INCLINATION    = 82.5111
RA_OF_ASC_NODE = 287.7146
ARG_OF_PERICENTER = 94.4886
MEAN_ANOMALY   = 265.8305

EPHEMERIS_TYPE = 0
CLASSIFICATION_TYPE = U
NORAD_CAT_ID   = 11672
ELEMENT_SET_NO = 999
REV_AT_EPOCH   = 47955
BSTAR          = .73355693E-4
MEAN_MOTION_DOT = .751E-5
MEAN_MOTION_DDOT = 0

CCSDS_OMM_VERS = 2.0
CREATION_DATE  = 
ORIGINATOR     = 

OBJECT_NAME    = SL-8 R/B
OBJECT_ID      = 1981-003B
CENTER_NAME    = EARTH
REF_FRAME      = TEME
TIME_SYSTEM    = UTC
MEAN_ELEMENT_THEORY = SGP/SGP4

EPOCH          = 2026-03-29T23:53:18.452544
MEAN_MOTION    = 15.11879258
ECCENTRICITY   = .02607312
INCLINATION    = 82.9325
RA_OF_ASC_NODE = 271.2335
ARG_OF_PERICENTER = 108.0114
MEAN_ANOMALY   = 254.9717

EPHEMERIS_TYPE = 0
CLASSIFICATION_TYPE = U
NORAD_CAT_ID   = 12139
ELEMENT_SET_NO = 999
REV_AT_EPOCH   = 31774
BSTAR          = .71189673E-3
MEAN_MOTION_DOT = .28472E-3
MEAN_MOTION_DDOT = 0

CCSDS_OMM_VERS = 2.0
CREATION_DATE  = 
ORIGINATOR     = 

OBJECT_NAME    = SL-3 R/B
OBJECT_ID      = 1981-046B
CENTER_NAME    = EARTH
REF_FRAME      = TEME
TIME_SYSTEM    = UTC
MEAN_ELEMENT_THEORY = SGP/SGP4

EPOCH          = 2026-03-30T00:39:26.064864
MEAN_MOTION    = 15.42493252
ECCENTRICITY   = .00181862
INCLINATION    = 81.2280
RA_OF_ASC_NODE = 265.3089
ARG_OF_PERICENTER = 310.1268
MEAN_ANOMALY   = 49.8381

EPHEMERIS_TYPE = 0
CLASSIFICATION_TYPE = U
NORAD_CAT_ID   = 12465
ELEMENT_SET_NO = 999
REV_AT_EPOCH   = 44156
BSTAR          = .35993539E-3
MEAN_MOTION_DOT = .15727E-3
MEAN_MOTION_DDOT = 0

CCSDS_OMM_VERS = 2.0
CREATION_DATE  = 
ORIGINATOR     = 

OBJECT_NAME    = SL-3 R/B
OBJECT_ID      = 1981-103B
CENTER_NAME    = EARTH
REF_FRAME      = TEME
TIME_SYSTEM    = UTC
MEAN_ELEMENT_THEORY = SGP/SGP4

EPOCH          = 2026-03-30T05:24:22.592736
MEAN_MOTION    = 15.21619340
ECCENTRICITY   = .00128135
INCLINATION    = 81.1611
RA_OF_ASC_NODE = 189.3425
ARG_OF_PERICENTER = 212.9255
MEAN_ANOMALY   = 147.1180

EPHEMERIS_TYPE = 0
CLASSIFICATION_TYPE = U
NORAD_CAT_ID   = 12904
ELEMENT_SET_NO = 999
REV_AT_EPOCH   = 97635
BSTAR          = .3448726E-3
MEAN_MOTION_DOT = .7828E-4
MEAN_MOTION_DDOT = 0

CCSDS_OMM_VERS = 2.0
CREATION_DATE  = 
ORIGINATOR     = 

OBJECT_NAME    = SL-3 R/B
OBJECT_ID      = 1982-013B
CENTER_NAME    = EARTH
REF_FRAME      = TEME
TIME_SYSTEM    = UTC
MEAN_ELEMENT_THEORY = SGP/SGP4

EPOCH          = 2026-03-30T05:24:09.641376
MEAN_MOTION    = 15.22198356
ECCENTRICITY   = .00235714
INCLINATION    = 81.1734
RA_OF_ASC_NODE = 136.6998
ARG_OF_PERICENTER = 110.0739
MEAN_ANOMALY   = 250.3033

EPHEMERIS_TYPE = 0
CLASSIFICATION_TYPE = U
NORAD_CAT_ID   = 13068
ELEMENT_SET_NO = 999
REV_AT_EPOCH   = 40747
BSTAR          = .21434468E-3
MEAN_MOTION_DOT = .4985E-4
MEAN_MOTION_DDOT = 0

CCSDS_OMM_VERS = 2.0
CREATION_DATE  = 
ORIGINATOR     = 

OBJECT_NAME    = SL-3 R/B
OBJECT_ID      = 1982-039B
CENTER_NAME    = EARTH
REF_FRAME      = TEME
TIME_SYSTEM    = UTC
MEAN_ELEMENT_THEORY = SGP/SGP4

EPOCH          = 2026-03-30T04:44:00.427488
MEAN_MOTION    = 15.10196186
ECCENTRICITY   = .00285232
INCLINATION    = 81.1568
RA_OF_ASC_NODE = 192.3156
ARG_OF_PERICENTER = 256.5407
MEAN_ANOMALY   = 103.2640

EPHEMERIS_TYPE = 0
CLASSIFICATION_TYPE = U
NORAD_CAT_ID   = 13154
ELEMENT_SET_NO = 999
REV_AT_EPOCH   = 38473
BSTAR          = .22190191E-3
MEAN_MOTION_DOT = .3681E-4
MEAN_MOTION_DDOT = 0

